NUVIEW BRAVO            
1 62457U 24252D   26163.17058831 -.00000199  00000+0  00000+0 0  9998
2 62457   0.0711 146.3488 0001787 343.9381 108.5158  1.00270399  3746
SHIJIAN-25 (SJ-25)      
1 62485U 25002A   26163.73452044 -.00000339  00000+0  00000+0 0  9995
2 62485   5.1022  61.1883 0052199 173.1910  58.4404  1.00269787  5316
QZS-6 (MICHIBIKI-6)     
1 62876U 25023A   26163.14011634 -.00000218  00000+0  00000+0 0  9999
2 62876   0.0410  63.4269 0001771  25.7014 312.3104  1.00272177  4893
ZHONGXING-10R           
1 63075U 25036A   26162.91744793 -.00000335  00000+0  00000+0 0  9998
2 63075   0.0365 248.9127 0003340 257.7499 194.3703  1.00267376  4905
TJS-15                  
1 63157U 25045A   26163.71126794 -.00000251  00000+0  00000+0 0  9990
2 63157   0.2802  85.5081 0004716 296.7226 229.2467  1.00273032  4717
TJS-16                  
1 63397U 25064A   26163.73308458 -.00000092  00000+0  00000+0 0  9991
2 63397   1.0861  81.4768 0003394 289.3663 314.7352  1.00271423  4342
TJS-17                  
1 63524U 25073A   26163.73253493 -.00000056  00000+0  00000+0 0  9991
2 63524   1.0520  82.7274 0002125 296.3314 310.2407  1.00271871  4242
TJS-19                  
1 63924U 25097A   26163.73444269 -.00000263  00000+0  00000+0 0  9994
2 63924   3.2944 317.3628 0002268 240.2590 109.0600  1.00267139  4096
SXM-10                  
1 64290U 25122A   26162.95664700 -.00000001  00000+0  00000+0 0  9997
2 64290   0.0201  26.3100 0001672 337.7380 124.4641  1.00271678  3631
COSMOS 2589             
1 64467U 25131A   26163.71196127 -.00000277  00000+0  00000+0 0  9996
2 64467   0.0483  81.2647 0000975  60.2039 113.8659  1.00275647  3517
CHINASAT 9C             
1 64470U 25132A   26163.28299946 -.00000232  00000+0  00000+0 0  9997
2 64470   0.0136 275.9684 0002601 164.4232  14.3195  1.00270535  4106
MTG-S1                  
1 64723U 25143A   26163.26410604 -.00000016  00000+0  00000+0 0  9994
2 64723   0.6078 337.8047 0000959  16.4107 357.9845  1.00271617  3378
DROR 1                  
1 64784U 25148A   26163.26401937 -.00000019  00000+0  00000+0 0  9998
2 64784   0.0211  42.3134 0002601 346.9218 322.4029  1.00271596  3246
SHIYAN-29               
1 65486U 25196A   26160.07536391 -.00000259  00000+0  00000+0 0  9996
2 65486  28.8121  18.6391 0010972 171.7452 188.2752  1.00256520  2799
TJS-20                  
1 66142U 25238A   26162.99196436  .00000040  00000+0  00000+0 0  9995
2 66142   5.4820 299.5728 0004572 160.1959 220.0726  1.00273331  2282
CMS-03 (GSAT-7R)        
1 66311U 25249B   26163.19608515 -.00000061  00000+0  00000+0 0  9998
2 66311   0.0138 283.2498 0001581 154.9606 326.9041  1.00270903  2293
VIASAT-3 F2             
1 66454U 25261A   26162.82141315 -.00000217  00000+0  00000+0 0  9992
2 66454   0.0454 150.1977 0000074 150.5131 176.1755  1.00271859  2745
SHIJIAN-28 (SJ-28)      
1 66549U 25277A   26163.28794596 -.00000341  00000+0  00000+0 0  9998
2 66549   4.5518 272.2143 0000731 349.2107 219.6653  1.00265328  2105
TJS-23                  
1 67226U 25306A   26162.61709315  .00000033  00000+0  00000+0 0  9992
2 67226   5.6002 297.5193 0005197 167.6696 192.4305  1.00274138  1839
FENGYUN 4C              
1 67246U 25312A   26162.86342372  .00000000  00000+0  00000+0 0  9998
2 67246   0.0151  70.9384 0000542 136.1984 136.8926  1.00268868  1722
SHIJIAN-29A (SJ-29A)    
1 67302U 25315A   26163.70710794 -.00000055  00000+0  00000+0 0  9996
2 67302   3.3858  95.2202 0003126  24.9177 108.6698  1.00269536  1572
SHIJIAN-29B (SJ-29B)    
1 67403U 25315C   26163.70710794 -.00000055  00000+0  00000+0 0  9998
2 67403   3.3847  95.2125 0003686  31.9328 101.7055  1.00269442  1648
ELEKTRO-L 5             
1 67756U 26028A   26163.06551331 -.00000081  00000+0  00000+0 0  9999
2 67756   0.2607 309.7460 0001708 181.1254 229.1548  1.00271184  1203
JAM-E JAM 1             
1 67757U 26028B   26163.20022794  .00000171  00000+0  00000+0 0  9991
2 67757   0.2712 300.7633 0001133 299.4539 126.3073  1.00273099  1078
