OBJECT_NAME,OBJECT_ID,EPOCH,MEAN_MOTION,ECCENTRICITY,INCLINATION,RA_OF_ASC_NODE,ARG_OF_PERICENTER,MEAN_ANOMALY,EPHEMERIS_TYPE,CLASSIFICATION_TYPE,NORAD_CAT_ID,ELEMENT_SET_NO,REV_AT_EPOCH,BSTAR,MEAN_MOTION_DOT,MEAN_MOTION_DDOT
NUVIEW BRAVO,2024-252D,2026-06-12T04:05:38.829984,1.00270399,.00017874,0.0711,146.3488,343.9381,108.5158,0,U,62457,999,374,0,-.199E-5,0
SHIJIAN-25 (SJ-25),2025-002A,2026-06-12T17:37:42.566016,1.00269787,.0052199,5.1022,61.1883,173.1910,58.4404,0,U,62485,999,531,0,-.339E-5,0
QZS-6 (MICHIBIKI-6),2025-023A,2026-06-12T03:21:46.051776,1.00272177,.00017716,0.0410,63.4269,25.7014,312.3104,0,U,62876,999,489,0,-.218E-5,0
ZHONGXING-10R,2025-036A,2026-06-11T22:01:07.501152,1.00267376,.00033402,0.0365,248.9127,257.7499,194.3703,0,U,63075,999,490,0,-.335E-5,0
TJS-15,2025-045A,2026-06-12T17:04:13.550016,1.00273032,.0004716,0.2802,85.5081,296.7226,229.2467,0,U,63157,999,471,0,-.251E-5,0
TJS-16,2025-064A,2026-06-12T17:35:38.507712,1.00271423,.0003394,1.0861,81.4768,289.3663,314.7352,0,U,63397,999,434,0,-.92E-6,0
TJS-17,2025-073A,2026-06-12T17:34:51.017952,1.00271871,.0002125,1.0520,82.7274,296.3314,310.2407,0,U,63524,999,424,0,-.56E-6,0
TJS-19,2025-097A,2026-06-12T17:37:35.848416,1.00267139,.0002268,3.2944,317.3628,240.2590,109.0600,0,U,63924,999,409,0,-.263E-5,0
SXM-10,2025-122A,2026-06-11T22:57:34.300800,1.00271678,.00016725,0.0201,26.3100,337.7380,124.4641,0,U,64290,999,363,0,-.1E-7,0
COSMOS 2589,2025-131A,2026-06-12T17:05:13.453728,1.00275647,.0000975,0.0483,81.2647,60.2039,113.8659,0,U,64467,999,351,0,-.277E-5,0
CHINASAT 9C,2025-132A,2026-06-12T06:47:31.153344,1.00270535,.00026012,0.0136,275.9684,164.4232,14.3195,0,U,64470,999,410,0,-.232E-5,0
MTG-S1,2025-143A,2026-06-12T06:20:18.761856,1.00271617,.00009599,0.6078,337.8047,16.4107,357.9845,0,U,64723,999,337,0,-.16E-6,0
DROR 1,2025-148A,2026-06-12T06:20:11.273568,1.00271596,.00026018,0.0211,42.3134,346.9218,322.4029,0,U,64784,999,324,0,-.19E-6,0
SHIYAN-29,2025-196A,2026-06-09T01:48:31.441824,1.00256520,.00109724,28.8121,18.6391,171.7452,188.2752,0,U,65486,999,279,0,-.259E-5,0
TJS-20,2025-238A,2026-06-11T23:48:25.720704,1.00273331,.00045722,5.4820,299.5728,160.1959,220.0726,0,U,66142,999,228,0,.4E-6,0
CMS-03 (GSAT-7R),2025-249B,2026-06-12T04:42:21.756960,1.00270903,.00015816,0.0138,283.2498,154.9606,326.9041,0,U,66311,999,229,0,-.61E-6,0
VIASAT-3 F2,2025-261A,2026-06-11T19:42:50.096160,1.00271859,.00000743,0.0454,150.1977,150.5131,176.1755,0,U,66454,999,274,0,-.217E-5,0
SHIJIAN-28 (SJ-28),2025-277A,2026-06-12T06:54:38.530944,1.00265328,.00007316,4.5518,272.2143,349.2107,219.6653,0,U,66549,999,210,0,-.341E-5,0
TJS-23,2025-306A,2026-06-11T14:48:36.848160,1.00274138,.00051978,5.6002,297.5193,167.6696,192.4305,0,U,67226,999,183,0,.33E-6,0
FENGYUN 4C,2025-312A,2026-06-11T20:43:19.809408,1.00268868,.00005423,0.0151,70.9384,136.1984,136.8926,0,U,67246,999,172,0,0,0
SHIJIAN-29A (SJ-29A),2025-315A,2026-06-12T16:58:14.126016,1.00269536,.0003126,3.3858,95.2202,24.9177,108.6698,0,U,67302,999,157,0,-.55E-6,0
SHIJIAN-29B (SJ-29B),2025-315C,2026-06-12T16:58:14.126016,1.00269442,.0003686,3.3847,95.2125,31.9328,101.7055,0,U,67403,999,164,0,-.55E-6,0
ELEKTRO-L 5,2026-028A,2026-06-12T01:34:20.349984,1.00271184,.0001708,0.2607,309.7460,181.1254,229.1548,0,U,67756,999,120,0,-.81E-6,0
JAM-E JAM 1,2026-028B,2026-06-12T04:48:19.694016,1.00273099,.00011334,0.2712,300.7633,299.4539,126.3073,0,U,67757,999,107,0,.171E-5,0
